[
{
"EPOCH_MICROSECONDS": "561216",
"SEMIMAJOR_AXIS": "7141.052",
"BSTAR": "7.2602e-05",
"CLASSIFICATION_TYPE": "U",
"TLE_LINE0": "0 ORBCOMM FM 11",
"FILE": "2228996",
"ECCENTRICITY": "0.0007525",
"ELEMENT_SET_NO": "999",
"COMMENT": "GENERATED VIA SPACETRACK.ORG API",
"MEAN_MOTION_DDOT": "0",
"RA_OF_ASC_NODE": "8.3073",
"OBJECT_ID": "1997-084C",
"EPHEMERIS_TYPE": "0",
"OBJECT_NAME": "ORBCOMM FM 11",
"MEAN_MOTION": "14.38664227",
"ORIGINATOR": "JSPOC",
"TLE_LINE2": "2 25114  45.0174   8.3073 0007525 215.1427 144.8926 14.38664227 48827",
"TLE_LINE1": "1 25114U 97084C   18001.19226344  .00000082  00000-0  72602-4 0  9993",
"ARG_OF_PERICENTER": "215.1427",
"OBJECT_TYPE": "PAYLOAD",
"PERIOD": "100.092",
"INTLDES": "97084C",
"MEAN_ANOMALY": "144.8926",
"EPOCH": "2018-01-01 04:36:51",
"MEAN_MOTION_DOT": "8.2e-07",
"NORAD_CAT_ID": "25114",
"INCLINATION": "45.0174",
"PERIGEE": "757.543",
"REV_AT_EPOCH": "4882",
"OBJECT_NUMBER": "25114",
"APOGEE": "768.290"
},
{
"EPOCH_MICROSECONDS": "533856",
"SEMIMAJOR_AXIS": "7088.592",
"BSTAR": "3.7598e-05",
"CLASSIFICATION_TYPE": "U",
"TLE_LINE0": "0 ORBCOMM FM 103",
"FILE": "2229035",
"ECCENTRICITY": "0.0001857",
"ELEMENT_SET_NO": "999",
"COMMENT": "GENERATED VIA SPACETRACK.ORG API",
"MEAN_MOTION_DDOT": "0",
"RA_OF_ASC_NODE": "225.8285",
"OBJECT_ID": "2014-040F",
"EPHEMERIS_TYPE": "0",
"OBJECT_NAME": "ORBCOMM FM 103",
"MEAN_MOTION": "14.54664331",
"ORIGINATOR": "JSPOC",
"TLE_LINE2": "2 40091  47.0054 225.8285 0001857  85.8819 274.2277 14.54664331184357",
"TLE_LINE1": "1 40091U 14040F   18001.13267979 -.00000003  00000-0  37598-4 0  9997",
"ARG_OF_PERICENTER": "85.8819",
"OBJECT_TYPE": "PAYLOAD",
"PERIOD": "98.991",
"INTLDES": "14040F",
"MEAN_ANOMALY": "274.2277",
"EPOCH": "2018-01-01 03:11:03",
"MEAN_MOTION_DOT": "-3e-08",
"NORAD_CAT_ID": "40091",
"INCLINATION": "47.0054",
"PERIGEE": "709.140",
"REV_AT_EPOCH": "18435",
"OBJECT_NUMBER": "40091",
"APOGEE": "711.773"
}
]
